<?xml version="1.0" encoding="UTF-8"?>
<kml xmlns="http://www.opengis.net/kml/2.2" xmlns:gx="http://www.google.com/kml/ext/2.2">
    <Document id="1">
        <Style id="4">
            <LineStyle id="5">
                <color>ff0000ff</color>
                <colorMode>normal</colorMode>
                <width>5</width>
            </LineStyle>
        </Style>
        <Style id="8">
            <LineStyle id="9">
                <color>ff0000ff</color>
                <colorMode>normal</colorMode>
                <width>5</width>
            </LineStyle>
        </Style>
        <Style id="12">
            <LineStyle id="13">
                <color>ff0000ff</color>
                <colorMode>normal</colorMode>
                <width>5</width>
            </LineStyle>
        </Style>
        <Style id="16">
            <LineStyle id="17">
                <color>ff0000ff</color>
                <colorMode>normal</colorMode>
                <width>5</width>
            </LineStyle>
        </Style>
        <Style id="20">
            <LineStyle id="21">
                <color>ff0000ff</color>
                <colorMode>normal</colorMode>
                <width>5</width>
            </LineStyle>
        </Style>
        <Style id="24">
            <LineStyle id="25">
                <color>ff0000ff</color>
                <colorMode>normal</colorMode>
                <width>5</width>
            </LineStyle>
        </Style>
        <Style id="28">
            <LineStyle id="29">
                <color>ff0000ff</color>
                <colorMode>normal</colorMode>
                <width>5</width>
            </LineStyle>
        </Style>
        <Style id="32">
            <LineStyle id="33">
                <color>ff0000ff</color>
                <colorMode>normal</colorMode>
                <width>5</width>
            </LineStyle>
        </Style>
        <Style id="36">
            <LineStyle id="37">
                <color>ff0000ff</color>
                <colorMode>normal</colorMode>
                <width>5</width>
            </LineStyle>
        </Style>
        <Style id="40">
            <LineStyle id="41">
                <color>ff0000ff</color>
                <colorMode>normal</colorMode>
                <width>5</width>
            </LineStyle>
        </Style>
        <Style id="44">
            <LineStyle id="45">
                <color>ff0000ff</color>
                <colorMode>normal</colorMode>
                <width>5</width>
            </LineStyle>
        </Style>
        <Style id="48">
            <LineStyle id="49">
                <color>ff0000ff</color>
                <colorMode>normal</colorMode>
                <width>5</width>
            </LineStyle>
        </Style>
        <Style id="52">
            <LineStyle id="53">
                <color>ff0000ff</color>
                <colorMode>normal</colorMode>
                <width>5</width>
            </LineStyle>
        </Style>
        <Style id="56">
            <LineStyle id="57">
                <color>ff0000ff</color>
                <colorMode>normal</colorMode>
                <width>5</width>
            </LineStyle>
        </Style>
        <Style id="60">
            <LineStyle id="61">
                <color>ff0000ff</color>
                <colorMode>normal</colorMode>
                <width>5</width>
            </LineStyle>
        </Style>
        <Style id="64">
            <LineStyle id="65">
                <color>ff0000ff</color>
                <colorMode>normal</colorMode>
                <width>5</width>
            </LineStyle>
        </Style>
        <Style id="68">
            <LineStyle id="69">
                <color>ff0000ff</color>
                <colorMode>normal</colorMode>
                <width>5</width>
            </LineStyle>
        </Style>
        <Style id="72">
            <LineStyle id="73">
                <color>ff0000ff</color>
                <colorMode>normal</colorMode>
                <width>5</width>
            </LineStyle>
        </Style>
        <Style id="76">
            <LineStyle id="77">
                <color>ff0000ff</color>
                <colorMode>normal</colorMode>
                <width>5</width>
            </LineStyle>
        </Style>
        <Style id="80">
            <LineStyle id="81">
                <color>ff0000ff</color>
                <colorMode>normal</colorMode>
                <width>5</width>
            </LineStyle>
        </Style>
        <Style id="84">
            <LineStyle id="85">
                <color>ff0000ff</color>
                <colorMode>normal</colorMode>
                <width>5</width>
            </LineStyle>
        </Style>
        <Style id="88">
            <LineStyle id="89">
                <color>ff0000ff</color>
                <colorMode>normal</colorMode>
                <width>5</width>
            </LineStyle>
        </Style>
        <Style id="92">
            <LineStyle id="93">
                <color>ff0000ff</color>
                <colorMode>normal</colorMode>
                <width>5</width>
            </LineStyle>
        </Style>
        <Style id="96">
            <LineStyle id="97">
                <color>ff0000ff</color>
                <colorMode>normal</colorMode>
                <width>5</width>
            </LineStyle>
        </Style>
        <Style id="100">
            <LineStyle id="101">
                <color>ff0000ff</color>
                <colorMode>normal</colorMode>
                <width>5</width>
            </LineStyle>
        </Style>
        <Style id="104">
            <LineStyle id="105">
                <color>ff0000ff</color>
                <colorMode>normal</colorMode>
                <width>5</width>
            </LineStyle>
        </Style>
        <Style id="108">
            <LineStyle id="109">
                <color>ff0000ff</color>
                <colorMode>normal</colorMode>
                <width>5</width>
            </LineStyle>
        </Style>
        <Style id="112">
            <LineStyle id="113">
                <color>ff0000ff</color>
                <colorMode>normal</colorMode>
                <width>5</width>
            </LineStyle>
        </Style>
        <Style id="116">
            <LineStyle id="117">
                <color>ff0000ff</color>
                <colorMode>normal</colorMode>
                <width>5</width>
            </LineStyle>
        </Style>
        <Style id="120">
            <LineStyle id="121">
                <color>ff0000ff</color>
                <colorMode>normal</colorMode>
                <width>5</width>
            </LineStyle>
        </Style>
        <Style id="124">
            <LineStyle id="125">
                <color>ff0000ff</color>
                <colorMode>normal</colorMode>
                <width>5</width>
            </LineStyle>
        </Style>
        <Style id="128">
            <LineStyle id="129">
                <color>ff0000ff</color>
                <colorMode>normal</colorMode>
                <width>5</width>
            </LineStyle>
        </Style>
        <Style id="132">
            <LineStyle id="133">
                <color>ff0000ff</color>
                <colorMode>normal</colorMode>
                <width>5</width>
            </LineStyle>
        </Style>
        <Style id="136">
            <LineStyle id="137">
                <color>ff0000ff</color>
                <colorMode>normal</colorMode>
                <width>5</width>
            </LineStyle>
        </Style>
        <Style id="140">
            <LineStyle id="141">
                <color>ff0000ff</color>
                <colorMode>normal</colorMode>
                <width>5</width>
            </LineStyle>
        </Style>
        <Style id="144">
            <LineStyle id="145">
                <color>ff0000ff</color>
                <colorMode>normal</colorMode>
                <width>5</width>
            </LineStyle>
        </Style>
        <Style id="148">
            <LineStyle id="149">
                <color>ff0000ff</color>
                <colorMode>normal</colorMode>
                <width>5</width>
            </LineStyle>
        </Style>
        <Style id="152">
            <LineStyle id="153">
                <color>ff0000ff</color>
                <colorMode>normal</colorMode>
                <width>5</width>
            </LineStyle>
        </Style>
        <Style id="156">
            <LineStyle id="157">
                <color>ff0000ff</color>
                <colorMode>normal</colorMode>
                <width>5</width>
            </LineStyle>
        </Style>
        <Style id="160">
            <LineStyle id="161">
                <color>ff0000ff</color>
                <colorMode>normal</colorMode>
                <width>5</width>
            </LineStyle>
        </Style>
        <Style id="164">
            <LineStyle id="165">
                <color>ff0000ff</color>
                <colorMode>normal</colorMode>
                <width>5</width>
            </LineStyle>
        </Style>
        <Style id="168">
            <LineStyle id="169">
                <color>ff0000ff</color>
                <colorMode>normal</colorMode>
                <width>5</width>
            </LineStyle>
        </Style>
        <Style id="172">
            <LineStyle id="173">
                <color>ff0000ff</color>
                <colorMode>normal</colorMode>
                <width>5</width>
            </LineStyle>
        </Style>
        <Style id="176">
            <LineStyle id="177">
                <color>ff0000ff</color>
                <colorMode>normal</colorMode>
                <width>5</width>
            </LineStyle>
        </Style>
        <Style id="180">
            <LineStyle id="181">
                <color>ff0000ff</color>
                <colorMode>normal</colorMode>
                <width>5</width>
            </LineStyle>
        </Style>
        <Style id="184">
            <LineStyle id="185">
                <color>ff0000ff</color>
                <colorMode>normal</colorMode>
                <width>5</width>
            </LineStyle>
        </Style>
        <Style id="188">
            <LineStyle id="189">
                <color>ff0000ff</color>
                <colorMode>normal</colorMode>
                <width>5</width>
            </LineStyle>
        </Style>
        <Style id="192">
            <LineStyle id="193">
                <color>ff0000ff</color>
                <colorMode>normal</colorMode>
                <width>5</width>
            </LineStyle>
        </Style>
        <Style id="196">
            <LineStyle id="197">
                <color>ff0000ff</color>
                <colorMode>normal</colorMode>
                <width>5</width>
            </LineStyle>
        </Style>
        <Style id="200">
            <LineStyle id="201">
                <color>ff0000ff</color>
                <colorMode>normal</colorMode>
                <width>5</width>
            </LineStyle>
        </Style>
        <Style id="204">
            <LineStyle id="205">
                <color>ff0000ff</color>
                <colorMode>normal</colorMode>
                <width>5</width>
            </LineStyle>
        </Style>
        <Style id="208">
            <LineStyle id="209">
                <color>ff0000ff</color>
                <colorMode>normal</colorMode>
                <width>5</width>
            </LineStyle>
        </Style>
        <Style id="212">
            <LineStyle id="213">
                <color>ff0000ff</color>
                <colorMode>normal</colorMode>
                <width>5</width>
            </LineStyle>
        </Style>
        <Style id="216">
            <LineStyle id="217">
                <color>ff0000ff</color>
                <colorMode>normal</colorMode>
                <width>5</width>
            </LineStyle>
        </Style>
        <Style id="220">
            <LineStyle id="221">
                <color>ff0000ff</color>
                <colorMode>normal</colorMode>
                <width>5</width>
            </LineStyle>
        </Style>
        <Style id="224">
            <LineStyle id="225">
                <color>ff0000ff</color>
                <colorMode>normal</colorMode>
                <width>5</width>
            </LineStyle>
        </Style>
        <Style id="228">
            <LineStyle id="229">
                <color>ff0000ff</color>
                <colorMode>normal</colorMode>
                <width>5</width>
            </LineStyle>
        </Style>
        <Style id="232">
            <LineStyle id="233">
                <color>ff0000ff</color>
                <colorMode>normal</colorMode>
                <width>5</width>
            </LineStyle>
        </Style>
        <Style id="236">
            <LineStyle id="237">
                <color>ff0000ff</color>
                <colorMode>normal</colorMode>
                <width>5</width>
            </LineStyle>
        </Style>
        <Style id="240">
            <LineStyle id="241">
                <color>ff0000ff</color>
                <colorMode>normal</colorMode>
                <width>5</width>
            </LineStyle>
        </Style>
        <Style id="244">
            <LineStyle id="245">
                <color>ff0000ff</color>
                <colorMode>normal</colorMode>
                <width>5</width>
            </LineStyle>
        </Style>
        <Style id="248">
            <LineStyle id="249">
                <color>ff0000ff</color>
                <colorMode>normal</colorMode>
                <width>5</width>
            </LineStyle>
        </Style>
        <Style id="252">
            <LineStyle id="253">
                <color>ff0000ff</color>
                <colorMode>normal</colorMode>
                <width>5</width>
            </LineStyle>
        </Style>
        <Style id="256">
            <LineStyle id="257">
                <color>ff0000ff</color>
                <colorMode>normal</colorMode>
                <width>5</width>
            </LineStyle>
        </Style>
        <Style id="260">
            <LineStyle id="261">
                <color>ff0000ff</color>
                <colorMode>normal</colorMode>
                <width>5</width>
            </LineStyle>
        </Style>
        <Style id="264">
            <LineStyle id="265">
                <color>ff0000ff</color>
                <colorMode>normal</colorMode>
                <width>5</width>
            </LineStyle>
        </Style>
        <Style id="268">
            <LineStyle id="269">
                <color>ff0000ff</color>
                <colorMode>normal</colorMode>
                <width>5</width>
            </LineStyle>
        </Style>
        <Style id="272">
            <LineStyle id="273">
                <color>ff0000ff</color>
                <colorMode>normal</colorMode>
                <width>5</width>
            </LineStyle>
        </Style>
        <Style id="276">
            <LineStyle id="277">
                <color>ff0000ff</color>
                <colorMode>normal</colorMode>
                <width>5</width>
            </LineStyle>
        </Style>
        <Style id="280">
            <LineStyle id="281">
                <color>ff0000ff</color>
                <colorMode>normal</colorMode>
                <width>5</width>
            </LineStyle>
        </Style>
        <Style id="284">
            <LineStyle id="285">
                <color>ff0000ff</color>
                <colorMode>normal</colorMode>
                <width>5</width>
            </LineStyle>
        </Style>
        <Style id="288">
            <LineStyle id="289">
                <color>ff0000ff</color>
                <colorMode>normal</colorMode>
                <width>5</width>
            </LineStyle>
        </Style>
        <Style id="292">
            <LineStyle id="293">
                <color>ff0000ff</color>
                <colorMode>normal</colorMode>
                <width>5</width>
            </LineStyle>
        </Style>
        <Style id="296">
            <LineStyle id="297">
                <color>ff0000ff</color>
                <colorMode>normal</colorMode>
                <width>5</width>
            </LineStyle>
        </Style>
        <Style id="300">
            <LineStyle id="301">
                <color>ff0000ff</color>
                <colorMode>normal</colorMode>
                <width>5</width>
            </LineStyle>
        </Style>
        <Style id="304">
            <LineStyle id="305">
                <color>ff0000ff</color>
                <colorMode>normal</colorMode>
                <width>5</width>
            </LineStyle>
        </Style>
        <Style id="308">
            <LineStyle id="309">
                <color>ff0000ff</color>
                <colorMode>normal</colorMode>
                <width>5</width>
            </LineStyle>
        </Style>
        <Style id="312">
            <LineStyle id="313">
                <color>ff0000ff</color>
                <colorMode>normal</colorMode>
                <width>5</width>
            </LineStyle>
        </Style>
        <Style id="316">
            <LineStyle id="317">
                <color>ff0000ff</color>
                <colorMode>normal</colorMode>
                <width>5</width>
            </LineStyle>
        </Style>
        <Style id="320">
            <LineStyle id="321">
                <color>ff0000ff</color>
                <colorMode>normal</colorMode>
                <width>5</width>
            </LineStyle>
        </Style>
        <Style id="324">
            <LineStyle id="325">
                <color>ff0000ff</color>
                <colorMode>normal</colorMode>
                <width>5</width>
            </LineStyle>
        </Style>
        <Style id="328">
            <LineStyle id="329">
                <color>ff0000ff</color>
                <colorMode>normal</colorMode>
                <width>5</width>
            </LineStyle>
        </Style>
        <Style id="332">
            <LineStyle id="333">
                <color>ff0000ff</color>
                <colorMode>normal</colorMode>
                <width>5</width>
            </LineStyle>
        </Style>
        <Style id="336">
            <LineStyle id="337">
                <color>ff0000ff</color>
                <colorMode>normal</colorMode>
                <width>5</width>
            </LineStyle>
        </Style>
        <Style id="340">
            <LineStyle id="341">
                <color>ff0000ff</color>
                <colorMode>normal</colorMode>
                <width>5</width>
            </LineStyle>
        </Style>
        <Style id="344">
            <LineStyle id="345">
                <color>ff0000ff</color>
                <colorMode>normal</colorMode>
                <width>5</width>
            </LineStyle>
        </Style>
        <Style id="348">
            <LineStyle id="349">
                <color>ff0000ff</color>
                <colorMode>normal</colorMode>
                <width>5</width>
            </LineStyle>
        </Style>
        <Style id="352">
            <LineStyle id="353">
                <color>ff0000ff</color>
                <colorMode>normal</colorMode>
                <width>5</width>
            </LineStyle>
        </Style>
        <Style id="356">
            <LineStyle id="357">
                <color>ff0000ff</color>
                <colorMode>normal</colorMode>
                <width>5</width>
            </LineStyle>
        </Style>
        <Style id="360">
            <LineStyle id="361">
                <color>ff0000ff</color>
                <colorMode>normal</colorMode>
                <width>5</width>
            </LineStyle>
        </Style>
        <Style id="364">
            <LineStyle id="365">
                <color>ff0000ff</color>
                <colorMode>normal</colorMode>
                <width>5</width>
            </LineStyle>
        </Style>
        <Style id="368">
            <LineStyle id="369">
                <color>ff0000ff</color>
                <colorMode>normal</colorMode>
                <width>5</width>
            </LineStyle>
        </Style>
        <Style id="372">
            <LineStyle id="373">
                <color>ff0000ff</color>
                <colorMode>normal</colorMode>
                <width>5</width>
            </LineStyle>
        </Style>
        <Style id="376">
            <LineStyle id="377">
                <color>ff0000ff</color>
                <colorMode>normal</colorMode>
                <width>5</width>
            </LineStyle>
        </Style>
        <Style id="380">
            <LineStyle id="381">
                <color>ff0000ff</color>
                <colorMode>normal</colorMode>
                <width>5</width>
            </LineStyle>
        </Style>
        <Style id="384">
            <LineStyle id="385">
                <color>ff0000ff</color>
                <colorMode>normal</colorMode>
                <width>5</width>
            </LineStyle>
        </Style>
        <Style id="388">
            <LineStyle id="389">
                <color>ff0000ff</color>
                <colorMode>normal</colorMode>
                <width>5</width>
            </LineStyle>
        </Style>
        <Style id="392">
            <LineStyle id="393">
                <color>ff0000ff</color>
                <colorMode>normal</colorMode>
                <width>5</width>
            </LineStyle>
        </Style>
        <Style id="396">
            <LineStyle id="397">
                <color>ff0000ff</color>
                <colorMode>normal</colorMode>
                <width>5</width>
            </LineStyle>
        </Style>
        <Style id="400">
            <LineStyle id="401">
                <color>ff0000ff</color>
                <colorMode>normal</colorMode>
                <width>5</width>
            </LineStyle>
        </Style>
        <Style id="404">
            <LineStyle id="405">
                <color>ff0000ff</color>
                <colorMode>normal</colorMode>
                <width>5</width>
            </LineStyle>
        </Style>
        <Style id="408">
            <LineStyle id="409">
                <color>ff0000ff</color>
                <colorMode>normal</colorMode>
                <width>5</width>
            </LineStyle>
        </Style>
        <Style id="412">
            <LineStyle id="413">
                <color>ff0000ff</color>
                <colorMode>normal</colorMode>
                <width>5</width>
            </LineStyle>
        </Style>
        <Style id="416">
            <LineStyle id="417">
                <color>ff0000ff</color>
                <colorMode>normal</colorMode>
                <width>5</width>
            </LineStyle>
        </Style>
        <Style id="420">
            <LineStyle id="421">
                <color>ff0000ff</color>
                <colorMode>normal</colorMode>
                <width>5</width>
            </LineStyle>
        </Style>
        <Style id="424">
            <LineStyle id="425">
                <color>ff0000ff</color>
                <colorMode>normal</colorMode>
                <width>5</width>
            </LineStyle>
        </Style>
        <Style id="428">
            <LineStyle id="429">
                <color>ff0000ff</color>
                <colorMode>normal</colorMode>
                <width>5</width>
            </LineStyle>
        </Style>
        <Style id="432">
            <LineStyle id="433">
                <color>ff0000ff</color>
                <colorMode>normal</colorMode>
                <width>5</width>
            </LineStyle>
        </Style>
        <Style id="436">
            <LineStyle id="437">
                <color>ff0000ff</color>
                <colorMode>normal</colorMode>
                <width>5</width>
            </LineStyle>
        </Style>
        <Style id="440">
            <LineStyle id="441">
                <color>ff0000ff</color>
                <colorMode>normal</colorMode>
                <width>5</width>
            </LineStyle>
        </Style>
        <Style id="444">
            <LineStyle id="445">
                <color>ff0000ff</color>
                <colorMode>normal</colorMode>
                <width>5</width>
            </LineStyle>
        </Style>
        <Style id="448">
            <LineStyle id="449">
                <color>ff0000ff</color>
                <colorMode>normal</colorMode>
                <width>5</width>
            </LineStyle>
        </Style>
        <Style id="452">
            <LineStyle id="453">
                <color>ff0000ff</color>
                <colorMode>normal</colorMode>
                <width>5</width>
            </LineStyle>
        </Style>
        <Style id="456">
            <LineStyle id="457">
                <color>ff0000ff</color>
                <colorMode>normal</colorMode>
                <width>5</width>
            </LineStyle>
        </Style>
        <Style id="460">
            <LineStyle id="461">
                <color>ff0000ff</color>
                <colorMode>normal</colorMode>
                <width>5</width>
            </LineStyle>
        </Style>
        <Style id="464">
            <LineStyle id="465">
                <color>ff0000ff</color>
                <colorMode>normal</colorMode>
                <width>5</width>
            </LineStyle>
        </Style>
        <Style id="468">
            <LineStyle id="469">
                <color>ff0000ff</color>
                <colorMode>normal</colorMode>
                <width>5</width>
            </LineStyle>
        </Style>
        <Style id="472">
            <LineStyle id="473">
                <color>ff0000ff</color>
                <colorMode>normal</colorMode>
                <width>5</width>
            </LineStyle>
        </Style>
        <Style id="476">
            <LineStyle id="477">
                <color>ff0000ff</color>
                <colorMode>normal</colorMode>
                <width>5</width>
            </LineStyle>
        </Style>
        <Style id="480">
            <LineStyle id="481">
                <color>ff0000ff</color>
                <colorMode>normal</colorMode>
                <width>5</width>
            </LineStyle>
        </Style>
        <Style id="484">
            <LineStyle id="485">
                <color>ff0000ff</color>
                <colorMode>normal</colorMode>
                <width>5</width>
            </LineStyle>
        </Style>
        <Style id="488">
            <LineStyle id="489">
                <color>ff0000ff</color>
                <colorMode>normal</colorMode>
                <width>5</width>
            </LineStyle>
        </Style>
        <Style id="492">
            <LineStyle id="493">
                <color>ff0000ff</color>
                <colorMode>normal</colorMode>
                <width>5</width>
            </LineStyle>
        </Style>
        <Style id="496">
            <LineStyle id="497">
                <color>ff0000ff</color>
                <colorMode>normal</colorMode>
                <width>5</width>
            </LineStyle>
        </Style>
        <Style id="500">
            <LineStyle id="501">
                <color>ff0000ff</color>
                <colorMode>normal</colorMode>
                <width>5</width>
            </LineStyle>
        </Style>
        <Style id="504">
            <LineStyle id="505">
                <color>ff0000ff</color>
                <colorMode>normal</colorMode>
                <width>5</width>
            </LineStyle>
        </Style>
        <Style id="508">
            <LineStyle id="509">
                <color>ff0000ff</color>
                <colorMode>normal</colorMode>
                <width>5</width>
            </LineStyle>
        </Style>
        <Style id="512">
            <LineStyle id="513">
                <color>ff0000ff</color>
                <colorMode>normal</colorMode>
                <width>5</width>
            </LineStyle>
        </Style>
        <Style id="516">
            <LineStyle id="517">
                <color>ff0000ff</color>
                <colorMode>normal</colorMode>
                <width>5</width>
            </LineStyle>
        </Style>
        <Style id="520">
            <LineStyle id="521">
                <color>ff0000ff</color>
                <colorMode>normal</colorMode>
                <width>5</width>
            </LineStyle>
        </Style>
        <Style id="524">
            <LineStyle id="525">
                <color>ff0000ff</color>
                <colorMode>normal</colorMode>
                <width>5</width>
            </LineStyle>
        </Style>
        <Style id="528">
            <LineStyle id="529">
                <color>ff0000ff</color>
                <colorMode>normal</colorMode>
                <width>5</width>
            </LineStyle>
        </Style>
        <Style id="532">
            <LineStyle id="533">
                <color>ff0000ff</color>
                <colorMode>normal</colorMode>
                <width>5</width>
            </LineStyle>
        </Style>
        <Style id="536">
            <LineStyle id="537">
                <color>ff0000ff</color>
                <colorMode>normal</colorMode>
                <width>5</width>
            </LineStyle>
        </Style>
        <Style id="540">
            <LineStyle id="541">
                <color>ff0000ff</color>
                <colorMode>normal</colorMode>
                <width>5</width>
            </LineStyle>
        </Style>
        <Style id="544">
            <LineStyle id="545">
                <color>ff0000ff</color>
                <colorMode>normal</colorMode>
                <width>5</width>
            </LineStyle>
        </Style>
        <Style id="548">
            <LineStyle id="549">
                <color>ff0000ff</color>
                <colorMode>normal</colorMode>
                <width>5</width>
            </LineStyle>
        </Style>
        <Style id="552">
            <LineStyle id="553">
                <color>ff0000ff</color>
                <colorMode>normal</colorMode>
                <width>5</width>
            </LineStyle>
        </Style>
        <Style id="556">
            <LineStyle id="557">
                <color>ff0000ff</color>
                <colorMode>normal</colorMode>
                <width>5</width>
            </LineStyle>
        </Style>
        <Style id="560">
            <LineStyle id="561">
                <color>ff0000ff</color>
                <colorMode>normal</colorMode>
                <width>5</width>
            </LineStyle>
        </Style>
        <Style id="564">
            <LineStyle id="565">
                <color>ff0000ff</color>
                <colorMode>normal</colorMode>
                <width>5</width>
            </LineStyle>
        </Style>
        <Style id="568">
            <LineStyle id="569">
                <color>ff0000ff</color>
                <colorMode>normal</colorMode>
                <width>5</width>
            </LineStyle>
        </Style>
        <Style id="572">
            <LineStyle id="573">
                <color>ff0000ff</color>
                <colorMode>normal</colorMode>
                <width>5</width>
            </LineStyle>
        </Style>
        <Style id="576">
            <LineStyle id="577">
                <color>ff0000ff</color>
                <colorMode>normal</colorMode>
                <width>5</width>
            </LineStyle>
        </Style>
        <Style id="580">
            <LineStyle id="581">
                <color>ff0000ff</color>
                <colorMode>normal</colorMode>
                <width>5</width>
            </LineStyle>
        </Style>
        <Style id="584">
            <LineStyle id="585">
                <color>ff0000ff</color>
                <colorMode>normal</colorMode>
                <width>5</width>
            </LineStyle>
        </Style>
        <Style id="588">
            <LineStyle id="589">
                <color>ff0000ff</color>
                <colorMode>normal</colorMode>
                <width>5</width>
            </LineStyle>
        </Style>
        <Placemark id="3">
            <styleUrl>#4</styleUrl>
            <LineString id="2">
                <altitudeMode>relativeToGround</altitudeMode>
                <coordinates>0.6709254258724429,40.79393257368632,15 0.660402812696335,40.79037754297557,15</coordinates>
            </LineString>
        </Placemark>
        <Placemark id="7">
            <styleUrl>#8</styleUrl>
            <LineString id="6">
                <altitudeMode>relativeToGround</altitudeMode>
                <coordinates>0.6709254258724429,40.79393257368632,15 0.7017759021664767,40.79065728540479,15</coordinates>
            </LineString>
        </Placemark>
        <Placemark id="11">
            <styleUrl>#12</styleUrl>
            <LineString id="10">
                <altitudeMode>relativeToGround</altitudeMode>
                <coordinates>0.6709254258724429,40.79393257368632,15 0.6668982739471511,40.77667324442609,15</coordinates>
            </LineString>
        </Placemark>
        <Placemark id="15">
            <styleUrl>#16</styleUrl>
            <LineString id="14">
                <altitudeMode>relativeToGround</altitudeMode>
                <coordinates>0.660402812696335,40.79037754297557,15 0.6508681284897714,40.78496122469916,15</coordinates>
            </LineString>
        </Placemark>
        <Placemark id="19">
            <styleUrl>#20</styleUrl>
            <LineString id="18">
                <altitudeMode>relativeToGround</altitudeMode>
                <coordinates>0.660402812696335,40.79037754297557,15 0.6668982739471511,40.77667324442609,15</coordinates>
            </LineString>
        </Placemark>
        <Placemark id="23">
            <styleUrl>#24</styleUrl>
            <LineString id="22">
                <altitudeMode>relativeToGround</altitudeMode>
                <coordinates>0.6508681284897714,40.78496122469916,15 0.6369389587806655,40.7748061521982,15</coordinates>
            </LineString>
        </Placemark>
        <Placemark id="27">
            <styleUrl>#28</styleUrl>
            <LineString id="26">
                <altitudeMode>relativeToGround</altitudeMode>
                <coordinates>0.6508681284897714,40.78496122469916,15 0.6668982739471511,40.77667324442609,15</coordinates>
            </LineString>
        </Placemark>
        <Placemark id="31">
            <styleUrl>#32</styleUrl>
            <LineString id="30">
                <altitudeMode>relativeToGround</altitudeMode>
                <coordinates>0.6369389587806655,40.7748061521982,15 0.6268762328236398,40.76383063498124,15</coordinates>
            </LineString>
        </Placemark>
        <Placemark id="35">
            <styleUrl>#36</styleUrl>
            <LineString id="34">
                <altitudeMode>relativeToGround</altitudeMode>
                <coordinates>0.6369389587806655,40.7748061521982,15 0.6259924692944251,40.78827231424216,15</coordinates>
            </LineString>
        </Placemark>
        <Placemark id="39">
            <styleUrl>#40</styleUrl>
            <LineString id="38">
                <altitudeMode>relativeToGround</altitudeMode>
                <coordinates>0.6268762328236398,40.76383063498124,15 0.6132605411483254,40.75855130382775,15</coordinates>
            </LineString>
        </Placemark>
        <Placemark id="43">
            <styleUrl>#44</styleUrl>
            <LineString id="42">
                <altitudeMode>relativeToGround</altitudeMode>
                <coordinates>0.6268762328236398,40.76383063498124,15 0.6161838297798878,40.743188388498055,15</coordinates>
            </LineString>
        </Placemark>
        <Placemark id="47">
            <styleUrl>#48</styleUrl>
            <LineString id="46">
                <altitudeMode>relativeToGround</altitudeMode>
                <coordinates>0.6268762328236398,40.76383063498124,15 0.6539836032258064,40.74312257580645,15</coordinates>
            </LineString>
        </Placemark>
        <Placemark id="51">
            <styleUrl>#52</styleUrl>
            <LineString id="50">
                <altitudeMode>relativeToGround</altitudeMode>
                <coordinates>0.6268762328236398,40.76383063498124,15 0.6480989419014085,40.764635069577466,15</coordinates>
            </LineString>
        </Placemark>
        <Placemark id="55">
            <styleUrl>#56</styleUrl>
            <LineString id="54">
                <altitudeMode>relativeToGround</altitudeMode>
                <coordinates>0.6132605411483254,40.75855130382775,15 0.5996792539579807,40.75326406648412,15</coordinates>
            </LineString>
        </Placemark>
        <Placemark id="59">
            <styleUrl>#60</styleUrl>
            <LineString id="58">
                <altitudeMode>relativeToGround</altitudeMode>
                <coordinates>0.6132605411483254,40.75855130382775,15 0.6161838297798878,40.743188388498055,15</coordinates>
            </LineString>
        </Placemark>
        <Placemark id="63">
            <styleUrl>#64</styleUrl>
            <LineString id="62">
                <altitudeMode>relativeToGround</altitudeMode>
                <coordinates>0.6132605411483254,40.75855130382775,15 0.6074827383492419,40.77869727288041,15</coordinates>
            </LineString>
        </Placemark>
        <Placemark id="67">
            <styleUrl>#68</styleUrl>
            <LineString id="66">
                <altitudeMode>relativeToGround</altitudeMode>
                <coordinates>0.5996792539579807,40.75326406648412,15 0.5914540995668529,40.74231056614613,15</coordinates>
            </LineString>
        </Placemark>
        <Placemark id="71">
            <styleUrl>#72</styleUrl>
            <LineString id="70">
                <altitudeMode>relativeToGround</altitudeMode>
                <coordinates>0.5996792539579807,40.75326406648412,15 0.5902765935641701,40.75541720398946,15</coordinates>
            </LineString>
        </Placemark>
        <Placemark id="75">
            <styleUrl>#76</styleUrl>
            <LineString id="74">
                <altitudeMode>relativeToGround</altitudeMode>
                <coordinates>0.5996792539579807,40.75326406648412,15 0.6161838297798878,40.743188388498055,15</coordinates>
            </LineString>
        </Placemark>
        <Placemark id="79">
            <styleUrl>#80</styleUrl>
            <LineString id="78">
                <altitudeMode>relativeToGround</altitudeMode>
                <coordinates>0.5996792539579807,40.75326406648412,15 0.5877218082101373,40.76522788920275,15</coordinates>
            </LineString>
        </Placemark>
        <Placemark id="83">
            <styleUrl>#84</styleUrl>
            <LineString id="82">
                <altitudeMode>relativeToGround</altitudeMode>
                <coordinates>0.5914540995668529,40.74231056614613,15 0.5902695497513056,40.73040690586919,15</coordinates>
            </LineString>
        </Placemark>
        <Placemark id="87">
            <styleUrl>#88</styleUrl>
            <LineString id="86">
                <altitudeMode>relativeToGround</altitudeMode>
                <coordinates>0.5914540995668529,40.74231056614613,15 0.6161838297798878,40.743188388498055,15</coordinates>
            </LineString>
        </Placemark>
        <Placemark id="91">
            <styleUrl>#92</styleUrl>
            <LineString id="90">
                <altitudeMode>relativeToGround</altitudeMode>
                <coordinates>0.5914540995668529,40.74231056614613,15 0.5790610996186843,40.73888218001271,15</coordinates>
            </LineString>
        </Placemark>
        <Placemark id="95">
            <styleUrl>#96</styleUrl>
            <LineString id="94">
                <altitudeMode>relativeToGround</altitudeMode>
                <coordinates>0.5914540995668529,40.74231056614613,15 0.5902765935641701,40.75541720398946,15</coordinates>
            </LineString>
        </Placemark>
        <Placemark id="99">
            <styleUrl>#100</styleUrl>
            <LineString id="98">
                <altitudeMode>relativeToGround</altitudeMode>
                <coordinates>0.5902695497513056,40.73040690586919,15 0.5859168696942801,40.71858930016765,15</coordinates>
            </LineString>
        </Placemark>
        <Placemark id="103">
            <styleUrl>#104</styleUrl>
            <LineString id="102">
                <altitudeMode>relativeToGround</altitudeMode>
                <coordinates>0.5902695497513056,40.73040690586919,15 0.5774293390903206,40.72941354135643,15</coordinates>
            </LineString>
        </Placemark>
        <Placemark id="107">
            <styleUrl>#108</styleUrl>
            <LineString id="106">
                <altitudeMode>relativeToGround</altitudeMode>
                <coordinates>0.5902695497513056,40.73040690586919,15 0.5790610996186843,40.73888218001271,15</coordinates>
            </LineString>
        </Placemark>
        <Placemark id="111">
            <styleUrl>#112</styleUrl>
            <LineString id="110">
                <altitudeMode>relativeToGround</altitudeMode>
                <coordinates>0.5902695497513056,40.73040690586919,15 0.6010228429154659,40.723917890730064,15</coordinates>
            </LineString>
        </Placemark>
        <Placemark id="115">
            <styleUrl>#116</styleUrl>
            <LineString id="114">
                <altitudeMode>relativeToGround</altitudeMode>
                <coordinates>0.5859168696942801,40.71858930016765,15 0.5955855852724402,40.714895322413795,15</coordinates>
            </LineString>
        </Placemark>
        <Placemark id="119">
            <styleUrl>#120</styleUrl>
            <LineString id="118">
                <altitudeMode>relativeToGround</altitudeMode>
                <coordinates>0.5859168696942801,40.71858930016765,15 0.5774293390903206,40.72941354135643,15</coordinates>
            </LineString>
        </Placemark>
        <Placemark id="123">
            <styleUrl>#124</styleUrl>
            <LineString id="122">
                <altitudeMode>relativeToGround</altitudeMode>
                <coordinates>0.5859168696942801,40.71858930016765,15 0.5796196619648972,40.711925832277394,15</coordinates>
            </LineString>
        </Placemark>
        <Placemark id="127">
            <styleUrl>#128</styleUrl>
            <LineString id="126">
                <altitudeMode>relativeToGround</altitudeMode>
                <coordinates>0.5955855852724402,40.714895322413795,15 0.5883722917863984,40.70595672113027,15</coordinates>
            </LineString>
        </Placemark>
        <Placemark id="131">
            <styleUrl>#132</styleUrl>
            <LineString id="130">
                <altitudeMode>relativeToGround</altitudeMode>
                <coordinates>0.5955855852724402,40.714895322413795,15 0.6010228429154659,40.723917890730064,15</coordinates>
            </LineString>
        </Placemark>
        <Placemark id="135">
            <styleUrl>#136</styleUrl>
            <LineString id="134">
                <altitudeMode>relativeToGround</altitudeMode>
                <coordinates>0.5955855852724402,40.714895322413795,15 0.6117583546722721,40.713947827861645,15</coordinates>
            </LineString>
        </Placemark>
        <Placemark id="139">
            <styleUrl>#140</styleUrl>
            <LineString id="138">
                <altitudeMode>relativeToGround</altitudeMode>
                <coordinates>0.5883722917863984,40.70595672113027,15 0.5783154429618296,40.70302965594701,15</coordinates>
            </LineString>
        </Placemark>
        <Placemark id="143">
            <styleUrl>#144</styleUrl>
            <LineString id="142">
                <altitudeMode>relativeToGround</altitudeMode>
                <coordinates>0.5883722917863984,40.70595672113027,15 0.5796196619648972,40.711925832277394,15</coordinates>
            </LineString>
        </Placemark>
        <Placemark id="147">
            <styleUrl>#148</styleUrl>
            <LineString id="146">
                <altitudeMode>relativeToGround</altitudeMode>
                <coordinates>0.5883722917863984,40.70595672113027,15 0.5967066013139696,40.70103336491471,15</coordinates>
            </LineString>
        </Placemark>
        <Placemark id="151">
            <styleUrl>#152</styleUrl>
            <LineString id="150">
                <altitudeMode>relativeToGround</altitudeMode>
                <coordinates>0.5783154429618296,40.70302965594701,15 0.5796196619648972,40.711925832277394,15</coordinates>
            </LineString>
        </Placemark>
        <Placemark id="155">
            <styleUrl>#156</styleUrl>
            <LineString id="154">
                <altitudeMode>relativeToGround</altitudeMode>
                <coordinates>0.5783154429618296,40.70302965594701,15 0.5797233091958303,40.685621966418466,15</coordinates>
            </LineString>
        </Placemark>
        <Placemark id="159">
            <styleUrl>#160</styleUrl>
            <LineString id="158">
                <altitudeMode>relativeToGround</altitudeMode>
                <coordinates>0.5781369334876543,40.75135175914352,15 0.5877218082101373,40.76522788920275,15</coordinates>
            </LineString>
        </Placemark>
        <Placemark id="163">
            <styleUrl>#164</styleUrl>
            <LineString id="162">
                <altitudeMode>relativeToGround</altitudeMode>
                <coordinates>0.5781369334876543,40.75135175914352,15 0.5790610996186843,40.73888218001271,15</coordinates>
            </LineString>
        </Placemark>
        <Placemark id="167">
            <styleUrl>#168</styleUrl>
            <LineString id="166">
                <altitudeMode>relativeToGround</altitudeMode>
                <coordinates>0.5781369334876543,40.75135175914352,15 0.5902765935641701,40.75541720398946,15</coordinates>
            </LineString>
        </Placemark>
        <Placemark id="171">
            <styleUrl>#172</styleUrl>
            <LineString id="170">
                <altitudeMode>relativeToGround</altitudeMode>
                <coordinates>0.5877218082101373,40.76522788920275,15 0.5902765935641701,40.75541720398946,15</coordinates>
            </LineString>
        </Placemark>
        <Placemark id="175">
            <styleUrl>#176</styleUrl>
            <LineString id="174">
                <altitudeMode>relativeToGround</altitudeMode>
                <coordinates>0.5877218082101373,40.76522788920275,15 0.5921690365897379,40.77459215796549,15</coordinates>
            </LineString>
        </Placemark>
        <Placemark id="179">
            <styleUrl>#180</styleUrl>
            <LineString id="178">
                <altitudeMode>relativeToGround</altitudeMode>
                <coordinates>0.5790610996186843,40.73888218001271,15 0.5774293390903206,40.72941354135643,15</coordinates>
            </LineString>
        </Placemark>
        <Placemark id="183">
            <styleUrl>#184</styleUrl>
            <LineString id="182">
                <altitudeMode>relativeToGround</altitudeMode>
                <coordinates>0.5774293390903206,40.72941354135643,15 0.5796196619648972,40.711925832277394,15</coordinates>
            </LineString>
        </Placemark>
        <Placemark id="187">
            <styleUrl>#188</styleUrl>
            <LineString id="186">
                <altitudeMode>relativeToGround</altitudeMode>
                <coordinates>0.6161838297798878,40.743188388498055,15 0.6010228429154659,40.723917890730064,15</coordinates>
            </LineString>
        </Placemark>
        <Placemark id="191">
            <styleUrl>#192</styleUrl>
            <LineString id="190">
                <altitudeMode>relativeToGround</altitudeMode>
                <coordinates>0.6161838297798878,40.743188388498055,15 0.6368188392690514,40.72714817585537,15</coordinates>
            </LineString>
        </Placemark>
        <Placemark id="195">
            <styleUrl>#196</styleUrl>
            <LineString id="194">
                <altitudeMode>relativeToGround</altitudeMode>
                <coordinates>0.6043231945752302,40.629324615864896,15 0.5932670140474987,40.61927664972208,15</coordinates>
            </LineString>
        </Placemark>
        <Placemark id="199">
            <styleUrl>#200</styleUrl>
            <LineString id="198">
                <altitudeMode>relativeToGround</altitudeMode>
                <coordinates>0.6043231945752302,40.629324615864896,15 0.6396398569128456,40.642763813510676,15</coordinates>
            </LineString>
        </Placemark>
        <Placemark id="203">
            <styleUrl>#204</styleUrl>
            <LineString id="202">
                <altitudeMode>relativeToGround</altitudeMode>
                <coordinates>0.6043231945752302,40.629324615864896,15 0.5942398432546374,40.646579079131534,15</coordinates>
            </LineString>
        </Placemark>
        <Placemark id="207">
            <styleUrl>#208</styleUrl>
            <LineString id="206">
                <altitudeMode>relativeToGround</altitudeMode>
                <coordinates>0.5932670140474987,40.61927664972208,15 0.582599669041068,40.62628657409559,15</coordinates>
            </LineString>
        </Placemark>
        <Placemark id="211">
            <styleUrl>#212</styleUrl>
            <LineString id="210">
                <altitudeMode>relativeToGround</altitudeMode>
                <coordinates>0.5932670140474987,40.61927664972208,15 0.579322896562033,40.607459411310415,15</coordinates>
            </LineString>
        </Placemark>
        <Placemark id="215">
            <styleUrl>#216</styleUrl>
            <LineString id="214">
                <altitudeMode>relativeToGround</altitudeMode>
                <coordinates>0.5921690365897379,40.77459215796549,15 0.5911554906436419,40.78838957613815,15</coordinates>
            </LineString>
        </Placemark>
        <Placemark id="219">
            <styleUrl>#220</styleUrl>
            <LineString id="218">
                <altitudeMode>relativeToGround</altitudeMode>
                <coordinates>0.5921690365897379,40.77459215796549,15 0.6074827383492419,40.77869727288041,15</coordinates>
            </LineString>
        </Placemark>
        <Placemark id="223">
            <styleUrl>#224</styleUrl>
            <LineString id="222">
                <altitudeMode>relativeToGround</altitudeMode>
                <coordinates>0.8538409759987111,40.721016911275775,15 0.841736747114775,40.72437085187064,15</coordinates>
            </LineString>
        </Placemark>
        <Placemark id="227">
            <styleUrl>#228</styleUrl>
            <LineString id="226">
                <altitudeMode>relativeToGround</altitudeMode>
                <coordinates>0.841736747114775,40.72437085187064,15 0.8331593128806254,40.71439327669092,15</coordinates>
            </LineString>
        </Placemark>
        <Placemark id="231">
            <styleUrl>#232</styleUrl>
            <LineString id="230">
                <altitudeMode>relativeToGround</altitudeMode>
                <coordinates>0.841736747114775,40.72437085187064,15 0.8093456891304348,40.73448769402174,15</coordinates>
            </LineString>
        </Placemark>
        <Placemark id="235">
            <styleUrl>#236</styleUrl>
            <LineString id="234">
                <altitudeMode>relativeToGround</altitudeMode>
                <coordinates>0.8331593128806254,40.71439327669092,15 0.8114614849673203,40.70835736958271,15</coordinates>
            </LineString>
        </Placemark>
        <Placemark id="239">
            <styleUrl>#240</styleUrl>
            <LineString id="238">
                <altitudeMode>relativeToGround</altitudeMode>
                <coordinates>0.8114614849673203,40.70835736958271,15 0.7980744376980814,40.72060651415068,15</coordinates>
            </LineString>
        </Placemark>
        <Placemark id="243">
            <styleUrl>#244</styleUrl>
            <LineString id="242">
                <altitudeMode>relativeToGround</altitudeMode>
                <coordinates>0.7980744376980814,40.72060651415068,15 0.7790964953432838,40.711092007044776,15</coordinates>
            </LineString>
        </Placemark>
        <Placemark id="247">
            <styleUrl>#248</styleUrl>
            <LineString id="246">
                <altitudeMode>relativeToGround</altitudeMode>
                <coordinates>0.7980744376980814,40.72060651415068,15 0.8093456891304348,40.73448769402174,15</coordinates>
            </LineString>
        </Placemark>
        <Placemark id="251">
            <styleUrl>#252</styleUrl>
            <LineString id="250">
                <altitudeMode>relativeToGround</altitudeMode>
                <coordinates>0.7790964953432838,40.711092007044776,15 0.7701399194800923,40.73946069203686,15</coordinates>
            </LineString>
        </Placemark>
        <Placemark id="255">
            <styleUrl>#256</styleUrl>
            <LineString id="254">
                <altitudeMode>relativeToGround</altitudeMode>
                <coordinates>0.7790964953432838,40.711092007044776,15 0.7377655407006698,40.71485205123648,15</coordinates>
            </LineString>
        </Placemark>
        <Placemark id="259">
            <styleUrl>#260</styleUrl>
            <LineString id="258">
                <altitudeMode>relativeToGround</altitudeMode>
                <coordinates>0.7377655407006698,40.71485205123648,15 0.7168557483401922,40.73039618148148,15</coordinates>
            </LineString>
        </Placemark>
        <Placemark id="263">
            <styleUrl>#264</styleUrl>
            <LineString id="262">
                <altitudeMode>relativeToGround</altitudeMode>
                <coordinates>0.7377655407006698,40.71485205123648,15 0.7160335091038407,40.71267172830726,15</coordinates>
            </LineString>
        </Placemark>
        <Placemark id="267">
            <styleUrl>#268</styleUrl>
            <LineString id="266">
                <altitudeMode>relativeToGround</altitudeMode>
                <coordinates>0.7377655407006698,40.71485205123648,15 0.748485621238938,40.673311739233036,15</coordinates>
            </LineString>
        </Placemark>
        <Placemark id="271">
            <styleUrl>#272</styleUrl>
            <LineString id="270">
                <altitudeMode>relativeToGround</altitudeMode>
                <coordinates>0.7168557483401922,40.73039618148148,15 0.6991451460358057,40.764809069757035,15</coordinates>
            </LineString>
        </Placemark>
        <Placemark id="275">
            <styleUrl>#276</styleUrl>
            <LineString id="274">
                <altitudeMode>relativeToGround</altitudeMode>
                <coordinates>0.7168557483401922,40.73039618148148,15 0.6949440914641376,40.72731734857736,15</coordinates>
            </LineString>
        </Placemark>
        <Placemark id="279">
            <styleUrl>#280</styleUrl>
            <LineString id="278">
                <altitudeMode>relativeToGround</altitudeMode>
                <coordinates>0.7168557483401922,40.73039618148148,15 0.7160335091038407,40.71267172830726,15</coordinates>
            </LineString>
        </Placemark>
        <Placemark id="283">
            <styleUrl>#284</styleUrl>
            <LineString id="282">
                <altitudeMode>relativeToGround</altitudeMode>
                <coordinates>0.7168557483401922,40.73039618148148,15 0.7701399194800923,40.73946069203686,15</coordinates>
            </LineString>
        </Placemark>
        <Placemark id="287">
            <styleUrl>#288</styleUrl>
            <LineString id="286">
                <altitudeMode>relativeToGround</altitudeMode>
                <coordinates>0.6991451460358057,40.764809069757035,15 0.7017759021664767,40.79065728540479,15</coordinates>
            </LineString>
        </Placemark>
        <Placemark id="291">
            <styleUrl>#292</styleUrl>
            <LineString id="290">
                <altitudeMode>relativeToGround</altitudeMode>
                <coordinates>0.6991451460358057,40.764809069757035,15 0.6762485078781513,40.7545292815126,15</coordinates>
            </LineString>
        </Placemark>
        <Placemark id="295">
            <styleUrl>#296</styleUrl>
            <LineString id="294">
                <altitudeMode>relativeToGround</altitudeMode>
                <coordinates>0.6991451460358057,40.764809069757035,15 0.7230848976863753,40.77760995475578,15</coordinates>
            </LineString>
        </Placemark>
        <Placemark id="299">
            <styleUrl>#300</styleUrl>
            <LineString id="298">
                <altitudeMode>relativeToGround</altitudeMode>
                <coordinates>0.6991451460358057,40.764809069757035,15 0.6949440914641376,40.72731734857736,15</coordinates>
            </LineString>
        </Placemark>
        <Placemark id="303">
            <styleUrl>#304</styleUrl>
            <LineString id="302">
                <altitudeMode>relativeToGround</altitudeMode>
                <coordinates>0.7017759021664767,40.79065728540479,15 0.7230848976863753,40.77760995475578,15</coordinates>
            </LineString>
        </Placemark>
        <Placemark id="307">
            <styleUrl>#308</styleUrl>
            <LineString id="306">
                <altitudeMode>relativeToGround</altitudeMode>
                <coordinates>0.6117583546722721,40.713947827861645,15 0.6263478831922612,40.714520450241835,15</coordinates>
            </LineString>
        </Placemark>
        <Placemark id="311">
            <styleUrl>#312</styleUrl>
            <LineString id="310">
                <altitudeMode>relativeToGround</altitudeMode>
                <coordinates>0.6117583546722721,40.713947827861645,15 0.6010228429154659,40.723917890730064,15</coordinates>
            </LineString>
        </Placemark>
        <Placemark id="315">
            <styleUrl>#316</styleUrl>
            <LineString id="314">
                <altitudeMode>relativeToGround</altitudeMode>
                <coordinates>0.6117583546722721,40.713947827861645,15 0.6213315108447488,40.70408848496956,15</coordinates>
            </LineString>
        </Placemark>
        <Placemark id="319">
            <styleUrl>#320</styleUrl>
            <LineString id="318">
                <altitudeMode>relativeToGround</altitudeMode>
                <coordinates>0.6263478831922612,40.714520450241835,15 0.639867435299109,40.71362526909914,15</coordinates>
            </LineString>
        </Placemark>
        <Placemark id="323">
            <styleUrl>#324</styleUrl>
            <LineString id="322">
                <altitudeMode>relativeToGround</altitudeMode>
                <coordinates>0.6263478831922612,40.714520450241835,15 0.6213315108447488,40.70408848496956,15</coordinates>
            </LineString>
        </Placemark>
        <Placemark id="327">
            <styleUrl>#328</styleUrl>
            <LineString id="326">
                <altitudeMode>relativeToGround</altitudeMode>
                <coordinates>0.639867435299109,40.71362526909914,15 0.6585228545121481,40.718224919822596,15</coordinates>
            </LineString>
        </Placemark>
        <Placemark id="331">
            <styleUrl>#332</styleUrl>
            <LineString id="330">
                <altitudeMode>relativeToGround</altitudeMode>
                <coordinates>0.639867435299109,40.71362526909914,15 0.6368188392690514,40.72714817585537,15</coordinates>
            </LineString>
        </Placemark>
        <Placemark id="335">
            <styleUrl>#336</styleUrl>
            <LineString id="334">
                <altitudeMode>relativeToGround</altitudeMode>
                <coordinates>0.639867435299109,40.71362526909914,15 0.6510823579920739,40.7001945350066,15</coordinates>
            </LineString>
        </Placemark>
        <Placemark id="339">
            <styleUrl>#340</styleUrl>
            <LineString id="338">
                <altitudeMode>relativeToGround</altitudeMode>
                <coordinates>0.639867435299109,40.71362526909914,15 0.6213315108447488,40.70408848496956,15</coordinates>
            </LineString>
        </Placemark>
        <Placemark id="343">
            <styleUrl>#344</styleUrl>
            <LineString id="342">
                <altitudeMode>relativeToGround</altitudeMode>
                <coordinates>0.6585228545121481,40.718224919822596,15 0.6773296983317445,40.726215207340324,15</coordinates>
            </LineString>
        </Placemark>
        <Placemark id="347">
            <styleUrl>#348</styleUrl>
            <LineString id="346">
                <altitudeMode>relativeToGround</altitudeMode>
                <coordinates>0.6585228545121481,40.718224919822596,15 0.6790254147005446,40.70869487447066,15</coordinates>
            </LineString>
        </Placemark>
        <Placemark id="351">
            <styleUrl>#352</styleUrl>
            <LineString id="350">
                <altitudeMode>relativeToGround</altitudeMode>
                <coordinates>0.6773296983317445,40.726215207340324,15 0.6949440914641376,40.72731734857736,15</coordinates>
            </LineString>
        </Placemark>
        <Placemark id="355">
            <styleUrl>#356</styleUrl>
            <LineString id="354">
                <altitudeMode>relativeToGround</altitudeMode>
                <coordinates>0.6773296983317445,40.726215207340324,15 0.6762485078781513,40.7545292815126,15</coordinates>
            </LineString>
        </Placemark>
        <Placemark id="359">
            <styleUrl>#360</styleUrl>
            <LineString id="358">
                <altitudeMode>relativeToGround</altitudeMode>
                <coordinates>0.6949440914641376,40.72731734857736,15 0.700098407751938,40.71435568930232,15</coordinates>
            </LineString>
        </Placemark>
        <Placemark id="363">
            <styleUrl>#364</styleUrl>
            <LineString id="362">
                <altitudeMode>relativeToGround</altitudeMode>
                <coordinates>0.7230848976863753,40.77760995475578,15 0.7447682051488335,40.76408581657281,15</coordinates>
            </LineString>
        </Placemark>
        <Placemark id="367">
            <styleUrl>#368</styleUrl>
            <LineString id="366">
                <altitudeMode>relativeToGround</altitudeMode>
                <coordinates>0.7230848976863753,40.77760995475578,15 0.768100462206333,40.78893120326864,15</coordinates>
            </LineString>
        </Placemark>
        <Placemark id="371">
            <styleUrl>#372</styleUrl>
            <LineString id="370">
                <altitudeMode>relativeToGround</altitudeMode>
                <coordinates>0.7160335091038407,40.71267172830726,15 0.700098407751938,40.71435568930232,15</coordinates>
            </LineString>
        </Placemark>
        <Placemark id="375">
            <styleUrl>#376</styleUrl>
            <LineString id="374">
                <altitudeMode>relativeToGround</altitudeMode>
                <coordinates>0.6368188392690514,40.72714817585537,15 0.6539836032258064,40.74312257580645,15</coordinates>
            </LineString>
        </Placemark>
        <Placemark id="379">
            <styleUrl>#380</styleUrl>
            <LineString id="378">
                <altitudeMode>relativeToGround</altitudeMode>
                <coordinates>0.5967066013139696,40.70103336491471,15 0.6061377984505364,40.69850176150179,15</coordinates>
            </LineString>
        </Placemark>
        <Placemark id="383">
            <styleUrl>#384</styleUrl>
            <LineString id="382">
                <altitudeMode>relativeToGround</altitudeMode>
                <coordinates>0.5967066013139696,40.70103336491471,15 0.5988984420171675,40.68361866178112,15</coordinates>
            </LineString>
        </Placemark>
        <Placemark id="387">
            <styleUrl>#388</styleUrl>
            <LineString id="386">
                <altitudeMode>relativeToGround</altitudeMode>
                <coordinates>0.6061377984505364,40.69850176150179,15 0.5988984420171675,40.68361866178112,15</coordinates>
            </LineString>
        </Placemark>
        <Placemark id="391">
            <styleUrl>#392</styleUrl>
            <LineString id="390">
                <altitudeMode>relativeToGround</altitudeMode>
                <coordinates>0.6061377984505364,40.69850176150179,15 0.6213315108447488,40.70408848496956,15</coordinates>
            </LineString>
        </Placemark>
        <Placemark id="395">
            <styleUrl>#396</styleUrl>
            <LineString id="394">
                <altitudeMode>relativeToGround</altitudeMode>
                <coordinates>0.6061377984505364,40.69850176150179,15 0.6162566534185001,40.6764655535841,15</coordinates>
            </LineString>
        </Placemark>
        <Placemark id="399">
            <styleUrl>#400</styleUrl>
            <LineString id="398">
                <altitudeMode>relativeToGround</altitudeMode>
                <coordinates>0.6162566534185001,40.6764655535841,15 0.6199248807439824,40.659640240943354,15</coordinates>
            </LineString>
        </Placemark>
        <Placemark id="403">
            <styleUrl>#404</styleUrl>
            <LineString id="402">
                <altitudeMode>relativeToGround</altitudeMode>
                <coordinates>0.6162566534185001,40.6764655535841,15 0.5988984420171675,40.68361866178112,15</coordinates>
            </LineString>
        </Placemark>
        <Placemark id="407">
            <styleUrl>#408</styleUrl>
            <LineString id="406">
                <altitudeMode>relativeToGround</altitudeMode>
                <coordinates>0.6162566534185001,40.6764655535841,15 0.6318928361702127,40.670229270212765,15</coordinates>
            </LineString>
        </Placemark>
        <Placemark id="411">
            <styleUrl>#412</styleUrl>
            <LineString id="410">
                <altitudeMode>relativeToGround</altitudeMode>
                <coordinates>0.6199248807439824,40.659640240943354,15 0.6307980506346025,40.65234719786239,15</coordinates>
            </LineString>
        </Placemark>
        <Placemark id="415">
            <styleUrl>#416</styleUrl>
            <LineString id="414">
                <altitudeMode>relativeToGround</altitudeMode>
                <coordinates>0.6199248807439824,40.659640240943354,15 0.5942398432546374,40.646579079131534,15</coordinates>
            </LineString>
        </Placemark>
        <Placemark id="419">
            <styleUrl>#420</styleUrl>
            <LineString id="418">
                <altitudeMode>relativeToGround</altitudeMode>
                <coordinates>0.6199248807439824,40.659640240943354,15 0.5943104391780409,40.6713195479976,15</coordinates>
            </LineString>
        </Placemark>
        <Placemark id="423">
            <styleUrl>#424</styleUrl>
            <LineString id="422">
                <altitudeMode>relativeToGround</altitudeMode>
                <coordinates>0.6307980506346025,40.65234719786239,15 0.6396398569128456,40.642763813510676,15</coordinates>
            </LineString>
        </Placemark>
        <Placemark id="427">
            <styleUrl>#428</styleUrl>
            <LineString id="426">
                <altitudeMode>relativeToGround</altitudeMode>
                <coordinates>0.6307980506346025,40.65234719786239,15 0.6470173801011805,40.66275528667791,15</coordinates>
            </LineString>
        </Placemark>
        <Placemark id="431">
            <styleUrl>#432</styleUrl>
            <LineString id="430">
                <altitudeMode>relativeToGround</altitudeMode>
                <coordinates>0.6396398569128456,40.642763813510676,15 0.6518710974023475,40.63385121943429,15</coordinates>
            </LineString>
        </Placemark>
        <Placemark id="435">
            <styleUrl>#436</styleUrl>
            <LineString id="434">
                <altitudeMode>relativeToGround</altitudeMode>
                <coordinates>0.6518710974023475,40.63385121943429,15 0.6829625003076923,40.63834421287912,15</coordinates>
            </LineString>
        </Placemark>
        <Placemark id="439">
            <styleUrl>#440</styleUrl>
            <LineString id="438">
                <altitudeMode>relativeToGround</altitudeMode>
                <coordinates>0.6829625003076923,40.63834421287912,15 0.6896034371147124,40.648494830044484,15</coordinates>
            </LineString>
        </Placemark>
        <Placemark id="443">
            <styleUrl>#444</styleUrl>
            <LineString id="442">
                <altitudeMode>relativeToGround</altitudeMode>
                <coordinates>0.6896034371147124,40.648494830044484,15 0.704493119273388,40.64142763084469,15</coordinates>
            </LineString>
        </Placemark>
        <Placemark id="447">
            <styleUrl>#448</styleUrl>
            <LineString id="446">
                <altitudeMode>relativeToGround</altitudeMode>
                <coordinates>0.6896034371147124,40.648494830044484,15 0.703907108143049,40.6533480662861,15</coordinates>
            </LineString>
        </Placemark>
        <Placemark id="451">
            <styleUrl>#452</styleUrl>
            <LineString id="450">
                <altitudeMode>relativeToGround</altitudeMode>
                <coordinates>0.6896034371147124,40.648494830044484,15 0.6629687549702244,40.66242707544664,15</coordinates>
            </LineString>
        </Placemark>
        <Placemark id="455">
            <styleUrl>#456</styleUrl>
            <LineString id="454">
                <altitudeMode>relativeToGround</altitudeMode>
                <coordinates>0.704493119273388,40.64142763084469,15 0.703907108143049,40.6533480662861,15</coordinates>
            </LineString>
        </Placemark>
        <Placemark id="459">
            <styleUrl>#460</styleUrl>
            <LineString id="458">
                <altitudeMode>relativeToGround</altitudeMode>
                <coordinates>0.703907108143049,40.6533480662861,15 0.7334800761904763,40.65315597460317,15</coordinates>
            </LineString>
        </Placemark>
        <Placemark id="463">
            <styleUrl>#464</styleUrl>
            <LineString id="462">
                <altitudeMode>relativeToGround</altitudeMode>
                <coordinates>0.703907108143049,40.6533480662861,15 0.698307644768439,40.68175743950829,15</coordinates>
            </LineString>
        </Placemark>
        <Placemark id="467">
            <styleUrl>#468</styleUrl>
            <LineString id="466">
                <altitudeMode>relativeToGround</altitudeMode>
                <coordinates>0.6629687549702244,40.66242707544664,15 0.6470173801011805,40.66275528667791,15</coordinates>
            </LineString>
        </Placemark>
        <Placemark id="471">
            <styleUrl>#472</styleUrl>
            <LineString id="470">
                <altitudeMode>relativeToGround</altitudeMode>
                <coordinates>0.6629687549702244,40.66242707544664,15 0.6584868809141445,40.67606289617048,15</coordinates>
            </LineString>
        </Placemark>
        <Placemark id="475">
            <styleUrl>#476</styleUrl>
            <LineString id="474">
                <altitudeMode>relativeToGround</altitudeMode>
                <coordinates>0.6470173801011805,40.66275528667791,15 0.6318928361702127,40.670229270212765,15</coordinates>
            </LineString>
        </Placemark>
        <Placemark id="479">
            <styleUrl>#480</styleUrl>
            <LineString id="478">
                <altitudeMode>relativeToGround</altitudeMode>
                <coordinates>0.6470173801011805,40.66275528667791,15 0.6584868809141445,40.67606289617048,15</coordinates>
            </LineString>
        </Placemark>
        <Placemark id="483">
            <styleUrl>#484</styleUrl>
            <LineString id="482">
                <altitudeMode>relativeToGround</altitudeMode>
                <coordinates>0.5988984420171675,40.68361866178112,15 0.5943104391780409,40.6713195479976,15</coordinates>
            </LineString>
        </Placemark>
        <Placemark id="487">
            <styleUrl>#488</styleUrl>
            <LineString id="486">
                <altitudeMode>relativeToGround</altitudeMode>
                <coordinates>0.5988984420171675,40.68361866178112,15 0.5797233091958303,40.685621966418466,15</coordinates>
            </LineString>
        </Placemark>
        <Placemark id="491">
            <styleUrl>#492</styleUrl>
            <LineString id="490">
                <altitudeMode>relativeToGround</altitudeMode>
                <coordinates>0.7334800761904763,40.65315597460317,15 0.7573506828849458,40.65571898053807,15</coordinates>
            </LineString>
        </Placemark>
        <Placemark id="495">
            <styleUrl>#496</styleUrl>
            <LineString id="494">
                <altitudeMode>relativeToGround</altitudeMode>
                <coordinates>0.7334800761904763,40.65315597460317,15 0.748485621238938,40.673311739233036,15</coordinates>
            </LineString>
        </Placemark>
        <Placemark id="499">
            <styleUrl>#500</styleUrl>
            <LineString id="498">
                <altitudeMode>relativeToGround</altitudeMode>
                <coordinates>0.7334800761904763,40.65315597460317,15 0.698307644768439,40.68175743950829,15</coordinates>
            </LineString>
        </Placemark>
        <Placemark id="503">
            <styleUrl>#504</styleUrl>
            <LineString id="502">
                <altitudeMode>relativeToGround</altitudeMode>
                <coordinates>0.7573506828849458,40.65571898053807,15 0.748485621238938,40.673311739233036,15</coordinates>
            </LineString>
        </Placemark>
        <Placemark id="507">
            <styleUrl>#508</styleUrl>
            <LineString id="506">
                <altitudeMode>relativeToGround</altitudeMode>
                <coordinates>0.7573506828849458,40.65571898053807,15 0.7801152948905113,40.65625964233577,15</coordinates>
            </LineString>
        </Placemark>
        <Placemark id="511">
            <styleUrl>#512</styleUrl>
            <LineString id="510">
                <altitudeMode>relativeToGround</altitudeMode>
                <coordinates>0.7573506828849458,40.65571898053807,15 0.712096181122449,40.59400338520408,15</coordinates>
            </LineString>
        </Placemark>
        <Placemark id="515">
            <styleUrl>#516</styleUrl>
            <LineString id="514">
                <altitudeMode>relativeToGround</altitudeMode>
                <coordinates>0.700098407751938,40.71435568930232,15 0.6790254147005446,40.70869487447066,15</coordinates>
            </LineString>
        </Placemark>
        <Placemark id="519">
            <styleUrl>#520</styleUrl>
            <LineString id="518">
                <altitudeMode>relativeToGround</altitudeMode>
                <coordinates>0.6790254147005446,40.70869487447066,15 0.698307644768439,40.68175743950829,15</coordinates>
            </LineString>
        </Placemark>
        <Placemark id="523">
            <styleUrl>#524</styleUrl>
            <LineString id="522">
                <altitudeMode>relativeToGround</altitudeMode>
                <coordinates>0.6790254147005446,40.70869487447066,15 0.6510823579920739,40.7001945350066,15</coordinates>
            </LineString>
        </Placemark>
        <Placemark id="527">
            <styleUrl>#528</styleUrl>
            <LineString id="526">
                <altitudeMode>relativeToGround</altitudeMode>
                <coordinates>0.6318928361702127,40.670229270212765,15 0.6510823579920739,40.7001945350066,15</coordinates>
            </LineString>
        </Placemark>
        <Placemark id="531">
            <styleUrl>#532</styleUrl>
            <LineString id="530">
                <altitudeMode>relativeToGround</altitudeMode>
                <coordinates>0.6124894091614906,40.79116898276398,15 0.6259924692944251,40.78827231424216,15</coordinates>
            </LineString>
        </Placemark>
        <Placemark id="535">
            <styleUrl>#536</styleUrl>
            <LineString id="534">
                <altitudeMode>relativeToGround</altitudeMode>
                <coordinates>0.6124894091614906,40.79116898276398,15 0.6074827383492419,40.77869727288041,15</coordinates>
            </LineString>
        </Placemark>
        <Placemark id="539">
            <styleUrl>#540</styleUrl>
            <LineString id="538">
                <altitudeMode>relativeToGround</altitudeMode>
                <coordinates>0.6259924692944251,40.78827231424216,15 0.6074827383492419,40.77869727288041,15</coordinates>
            </LineString>
        </Placemark>
        <Placemark id="543">
            <styleUrl>#544</styleUrl>
            <LineString id="542">
                <altitudeMode>relativeToGround</altitudeMode>
                <coordinates>0.6584868809141445,40.67606289617048,15 0.6510823579920739,40.7001945350066,15</coordinates>
            </LineString>
        </Placemark>
        <Placemark id="547">
            <styleUrl>#548</styleUrl>
            <LineString id="546">
                <altitudeMode>relativeToGround</altitudeMode>
                <coordinates>0.5943104391780409,40.6713195479976,15 0.5942398432546374,40.646579079131534,15</coordinates>
            </LineString>
        </Placemark>
        <Placemark id="551">
            <styleUrl>#552</styleUrl>
            <LineString id="550">
                <altitudeMode>relativeToGround</altitudeMode>
                <coordinates>0.5797233091958303,40.685621966418466,15 0.5942398432546374,40.646579079131534,15</coordinates>
            </LineString>
        </Placemark>
        <Placemark id="555">
            <styleUrl>#556</styleUrl>
            <LineString id="554">
                <altitudeMode>relativeToGround</altitudeMode>
                <coordinates>0.7957423296560404,40.76374493519295,15 0.768100462206333,40.78893120326864,15</coordinates>
            </LineString>
        </Placemark>
        <Placemark id="559">
            <styleUrl>#560</styleUrl>
            <LineString id="558">
                <altitudeMode>relativeToGround</altitudeMode>
                <coordinates>0.6539836032258064,40.74312257580645,15 0.6762485078781513,40.7545292815126,15</coordinates>
            </LineString>
        </Placemark>
        <Placemark id="563">
            <styleUrl>#564</styleUrl>
            <LineString id="562">
                <altitudeMode>relativeToGround</altitudeMode>
                <coordinates>0.6539836032258064,40.74312257580645,15 0.6480989419014085,40.764635069577466,15</coordinates>
            </LineString>
        </Placemark>
        <Placemark id="567">
            <styleUrl>#568</styleUrl>
            <LineString id="566">
                <altitudeMode>relativeToGround</altitudeMode>
                <coordinates>0.6762485078781513,40.7545292815126,15 0.6668982739471511,40.77667324442609,15</coordinates>
            </LineString>
        </Placemark>
        <Placemark id="571">
            <styleUrl>#572</styleUrl>
            <LineString id="570">
                <altitudeMode>relativeToGround</altitudeMode>
                <coordinates>0.6762485078781513,40.7545292815126,15 0.6480989419014085,40.764635069577466,15</coordinates>
            </LineString>
        </Placemark>
        <Placemark id="575">
            <styleUrl>#576</styleUrl>
            <LineString id="574">
                <altitudeMode>relativeToGround</altitudeMode>
                <coordinates>0.6668982739471511,40.77667324442609,15 0.6480989419014085,40.764635069577466,15</coordinates>
            </LineString>
        </Placemark>
        <Placemark id="579">
            <styleUrl>#580</styleUrl>
            <LineString id="578">
                <altitudeMode>relativeToGround</altitudeMode>
                <coordinates>0.582599669041068,40.62628657409559,15 0.5762629498504718,40.634355961812744,15</coordinates>
            </LineString>
        </Placemark>
        <Placemark id="583">
            <styleUrl>#584</styleUrl>
            <LineString id="582">
                <altitudeMode>relativeToGround</altitudeMode>
                <coordinates>0.582599669041068,40.62628657409559,15 0.579322896562033,40.607459411310415,15</coordinates>
            </LineString>
        </Placemark>
        <Placemark id="587">
            <styleUrl>#588</styleUrl>
            <LineString id="586">
                <altitudeMode>relativeToGround</altitudeMode>
                <coordinates>0.582599669041068,40.62628657409559,15 0.5942398432546374,40.646579079131534,15</coordinates>
            </LineString>
        </Placemark>
    </Document>
</kml>
