<?xml version="1.0" encoding="UTF-8"?>
<kml xmlns="http://www.opengis.net/kml/2.2" xmlns:gx="http://www.google.com/kml/ext/2.2">
    <Document id="619">
        <Style id="622">
            <LineStyle id="623">
                <color>ff0000ff</color>
                <colorMode>normal</colorMode>
                <width>5</width>
            </LineStyle>
        </Style>
        <Style id="626">
            <LineStyle id="627">
                <color>ff0000ff</color>
                <colorMode>normal</colorMode>
                <width>5</width>
            </LineStyle>
        </Style>
        <Style id="630">
            <LineStyle id="631">
                <color>ff0000ff</color>
                <colorMode>normal</colorMode>
                <width>5</width>
            </LineStyle>
        </Style>
        <Style id="634">
            <LineStyle id="635">
                <color>ff0000ff</color>
                <colorMode>normal</colorMode>
                <width>5</width>
            </LineStyle>
        </Style>
        <Style id="638">
            <LineStyle id="639">
                <color>ff0000ff</color>
                <colorMode>normal</colorMode>
                <width>5</width>
            </LineStyle>
        </Style>
        <Style id="642">
            <LineStyle id="643">
                <color>ff0000ff</color>
                <colorMode>normal</colorMode>
                <width>5</width>
            </LineStyle>
        </Style>
        <Style id="646">
            <LineStyle id="647">
                <color>ff0000ff</color>
                <colorMode>normal</colorMode>
                <width>5</width>
            </LineStyle>
        </Style>
        <Style id="650">
            <LineStyle id="651">
                <color>ff0000ff</color>
                <colorMode>normal</colorMode>
                <width>5</width>
            </LineStyle>
        </Style>
        <Style id="654">
            <LineStyle id="655">
                <color>ff0000ff</color>
                <colorMode>normal</colorMode>
                <width>5</width>
            </LineStyle>
        </Style>
        <Style id="658">
            <LineStyle id="659">
                <color>ff0000ff</color>
                <colorMode>normal</colorMode>
                <width>5</width>
            </LineStyle>
        </Style>
        <Style id="662">
            <LineStyle id="663">
                <color>ff0000ff</color>
                <colorMode>normal</colorMode>
                <width>5</width>
            </LineStyle>
        </Style>
        <Style id="666">
            <LineStyle id="667">
                <color>ff0000ff</color>
                <colorMode>normal</colorMode>
                <width>5</width>
            </LineStyle>
        </Style>
        <Style id="670">
            <LineStyle id="671">
                <color>ff0000ff</color>
                <colorMode>normal</colorMode>
                <width>5</width>
            </LineStyle>
        </Style>
        <Style id="674">
            <LineStyle id="675">
                <color>ff0000ff</color>
                <colorMode>normal</colorMode>
                <width>5</width>
            </LineStyle>
        </Style>
        <Style id="678">
            <LineStyle id="679">
                <color>ff0000ff</color>
                <colorMode>normal</colorMode>
                <width>5</width>
            </LineStyle>
        </Style>
        <Style id="682">
            <LineStyle id="683">
                <color>ff0000ff</color>
                <colorMode>normal</colorMode>
                <width>5</width>
            </LineStyle>
        </Style>
        <Style id="686">
            <LineStyle id="687">
                <color>ff0000ff</color>
                <colorMode>normal</colorMode>
                <width>5</width>
            </LineStyle>
        </Style>
        <Style id="690">
            <LineStyle id="691">
                <color>ff0000ff</color>
                <colorMode>normal</colorMode>
                <width>5</width>
            </LineStyle>
        </Style>
        <Style id="694">
            <LineStyle id="695">
                <color>ff0000ff</color>
                <colorMode>normal</colorMode>
                <width>5</width>
            </LineStyle>
        </Style>
        <Style id="698">
            <LineStyle id="699">
                <color>ff0000ff</color>
                <colorMode>normal</colorMode>
                <width>5</width>
            </LineStyle>
        </Style>
        <Style id="702">
            <LineStyle id="703">
                <color>ff0000ff</color>
                <colorMode>normal</colorMode>
                <width>5</width>
            </LineStyle>
        </Style>
        <Style id="706">
            <LineStyle id="707">
                <color>ff0000ff</color>
                <colorMode>normal</colorMode>
                <width>5</width>
            </LineStyle>
        </Style>
        <Style id="710">
            <LineStyle id="711">
                <color>ff0000ff</color>
                <colorMode>normal</colorMode>
                <width>5</width>
            </LineStyle>
        </Style>
        <Style id="714">
            <LineStyle id="715">
                <color>ff0000ff</color>
                <colorMode>normal</colorMode>
                <width>5</width>
            </LineStyle>
        </Style>
        <Style id="718">
            <LineStyle id="719">
                <color>ff0000ff</color>
                <colorMode>normal</colorMode>
                <width>5</width>
            </LineStyle>
        </Style>
        <Style id="722">
            <LineStyle id="723">
                <color>ff0000ff</color>
                <colorMode>normal</colorMode>
                <width>5</width>
            </LineStyle>
        </Style>
        <Placemark id="621">
            <styleUrl>#622</styleUrl>
            <LineString id="620">
                <altitudeMode>relativeToGround</altitudeMode>
                <coordinates>2.838423153673664,41.69837893633111,15 2.832093339050766,41.69901929258035,15</coordinates>
            </LineString>
        </Placemark>
        <Placemark id="625">
            <styleUrl>#626</styleUrl>
            <LineString id="624">
                <altitudeMode>relativeToGround</altitudeMode>
                <coordinates>2.838423153673664,41.69837893633111,15 2.843287796873542,41.699093911992534,15</coordinates>
            </LineString>
        </Placemark>
        <Placemark id="629">
            <styleUrl>#630</styleUrl>
            <LineString id="628">
                <altitudeMode>relativeToGround</altitudeMode>
                <coordinates>2.838423153673664,41.69837893633111,15 2.83473937698368,41.70587943584693,15</coordinates>
            </LineString>
        </Placemark>
        <Placemark id="633">
            <styleUrl>#634</styleUrl>
            <LineString id="632">
                <altitudeMode>relativeToGround</altitudeMode>
                <coordinates>2.832093339050766,41.69901929258035,15 2.826501963281152,41.69858217321227,15</coordinates>
            </LineString>
        </Placemark>
        <Placemark id="637">
            <styleUrl>#638</styleUrl>
            <LineString id="636">
                <altitudeMode>relativeToGround</altitudeMode>
                <coordinates>2.826501963281152,41.69858217321227,15 2.818899525729775,41.696495673394494,15</coordinates>
            </LineString>
        </Placemark>
        <Placemark id="641">
            <styleUrl>#642</styleUrl>
            <LineString id="640">
                <altitudeMode>relativeToGround</altitudeMode>
                <coordinates>2.818899525729775,41.696495673394494,15 2.81257906746121,41.68900987987407,15</coordinates>
            </LineString>
        </Placemark>
        <Placemark id="645">
            <styleUrl>#646</styleUrl>
            <LineString id="644">
                <altitudeMode>relativeToGround</altitudeMode>
                <coordinates>2.81257906746121,41.68900987987407,15 2.80559212,41.68441189759918,15</coordinates>
            </LineString>
        </Placemark>
        <Placemark id="649">
            <styleUrl>#650</styleUrl>
            <LineString id="648">
                <altitudeMode>relativeToGround</altitudeMode>
                <coordinates>2.80559212,41.68441189759918,15 2.799412637972647,41.68072714039766,15</coordinates>
            </LineString>
        </Placemark>
        <Placemark id="653">
            <styleUrl>#654</styleUrl>
            <LineString id="652">
                <altitudeMode>relativeToGround</altitudeMode>
                <coordinates>2.80559212,41.68441189759918,15 2.801463441647518,41.676877865199906,15</coordinates>
            </LineString>
        </Placemark>
        <Placemark id="657">
            <styleUrl>#658</styleUrl>
            <LineString id="656">
                <altitudeMode>relativeToGround</altitudeMode>
                <coordinates>2.799412637972647,41.68072714039766,15 2.793335322994895,41.674860842847416,15</coordinates>
            </LineString>
        </Placemark>
        <Placemark id="661">
            <styleUrl>#662</styleUrl>
            <LineString id="660">
                <altitudeMode>relativeToGround</altitudeMode>
                <coordinates>2.843287796873542,41.699093911992534,15 2.850408712338362,41.70069648332435,15</coordinates>
            </LineString>
        </Placemark>
        <Placemark id="665">
            <styleUrl>#666</styleUrl>
            <LineString id="664">
                <altitudeMode>relativeToGround</altitudeMode>
                <coordinates>2.850408712338362,41.70069648332435,15 2.8567252976071016,41.70314247159398,15</coordinates>
            </LineString>
        </Placemark>
        <Placemark id="669">
            <styleUrl>#670</styleUrl>
            <LineString id="668">
                <altitudeMode>relativeToGround</altitudeMode>
                <coordinates>2.8567252976071016,41.70314247159398,15 2.8661839579822614,41.702223274889135,15</coordinates>
            </LineString>
        </Placemark>
        <Placemark id="673">
            <styleUrl>#674</styleUrl>
            <LineString id="672">
                <altitudeMode>relativeToGround</altitudeMode>
                <coordinates>2.8661839579822614,41.702223274889135,15 2.876164213651256,41.70940883163451,15</coordinates>
            </LineString>
        </Placemark>
        <Placemark id="677">
            <styleUrl>#678</styleUrl>
            <LineString id="676">
                <altitudeMode>relativeToGround</altitudeMode>
                <coordinates>2.876164213651256,41.70940883163451,15 2.888127378368949,41.71090619851723,15</coordinates>
            </LineString>
        </Placemark>
        <Placemark id="681">
            <styleUrl>#682</styleUrl>
            <LineString id="680">
                <altitudeMode>relativeToGround</altitudeMode>
                <coordinates>2.888127378368949,41.71090619851723,15 2.8973919245467226,41.70786442022315,15</coordinates>
            </LineString>
        </Placemark>
        <Placemark id="685">
            <styleUrl>#686</styleUrl>
            <LineString id="684">
                <altitudeMode>relativeToGround</altitudeMode>
                <coordinates>2.8973919245467226,41.70786442022315,15 2.909642687884668,41.71226879359578,15</coordinates>
            </LineString>
        </Placemark>
        <Placemark id="689">
            <styleUrl>#690</styleUrl>
            <LineString id="688">
                <altitudeMode>relativeToGround</altitudeMode>
                <coordinates>2.909642687884668,41.71226879359578,15 2.9129002638188073,41.7096317641055,15</coordinates>
            </LineString>
        </Placemark>
        <Placemark id="693">
            <styleUrl>#694</styleUrl>
            <LineString id="692">
                <altitudeMode>relativeToGround</altitudeMode>
                <coordinates>2.9129002638188073,41.7096317641055,15 2.922469290951691,41.7142108184289,15</coordinates>
            </LineString>
        </Placemark>
        <Placemark id="697">
            <styleUrl>#698</styleUrl>
            <LineString id="696">
                <altitudeMode>relativeToGround</altitudeMode>
                <coordinates>2.922469290951691,41.7142108184289,15 2.925914953652906,41.71495855794405,15</coordinates>
            </LineString>
        </Placemark>
        <Placemark id="701">
            <styleUrl>#702</styleUrl>
            <LineString id="700">
                <altitudeMode>relativeToGround</altitudeMode>
                <coordinates>2.925914953652906,41.71495855794405,15 2.9281843433948063,41.72186625637938,15</coordinates>
            </LineString>
        </Placemark>
        <Placemark id="705">
            <styleUrl>#706</styleUrl>
            <LineString id="704">
                <altitudeMode>relativeToGround</altitudeMode>
                <coordinates>2.925914953652906,41.71495855794405,15 2.9308744888464555,41.71586837271837,15</coordinates>
            </LineString>
        </Placemark>
        <Placemark id="709">
            <styleUrl>#710</styleUrl>
            <LineString id="708">
                <altitudeMode>relativeToGround</altitudeMode>
                <coordinates>2.9308744888464555,41.71586837271837,15 2.9334601301468193,41.719509538357805,15</coordinates>
            </LineString>
        </Placemark>
        <Placemark id="713">
            <styleUrl>#714</styleUrl>
            <LineString id="712">
                <altitudeMode>relativeToGround</altitudeMode>
                <coordinates>2.83473937698368,41.70587943584693,15 2.831538818298447,41.715941108912894,15</coordinates>
            </LineString>
        </Placemark>
        <Placemark id="717">
            <styleUrl>#718</styleUrl>
            <LineString id="716">
                <altitudeMode>relativeToGround</altitudeMode>
                <coordinates>2.831538818298447,41.715941108912894,15 2.847707968926554,41.728951980225986,15</coordinates>
            </LineString>
        </Placemark>
        <Placemark id="721">
            <styleUrl>#722</styleUrl>
            <LineString id="720">
                <altitudeMode>relativeToGround</altitudeMode>
                <coordinates>2.847707968926554,41.728951980225986,15 2.9030335502873563,41.728913475574714,15</coordinates>
            </LineString>
        </Placemark>
    </Document>
</kml>
