<?xml version="1.0" encoding="UTF-8"?>
<kml xmlns="http://www.opengis.net/kml/2.2" xmlns:gx="http://www.google.com/kml/ext/2.2">
    <Document id="1">
        <Style id="4">
            <LineStyle id="5">
                <color>ff006400</color>
                <colorMode>normal</colorMode>
                <width>10</width>
            </LineStyle>
        </Style>
        <Style id="8">
            <LineStyle id="9">
                <color>ff006400</color>
                <colorMode>normal</colorMode>
                <width>10</width>
            </LineStyle>
        </Style>
        <Style id="12">
            <LineStyle id="13">
                <color>ff006400</color>
                <colorMode>normal</colorMode>
                <width>10</width>
            </LineStyle>
        </Style>
        <Style id="16">
            <LineStyle id="17">
                <color>ff006400</color>
                <colorMode>normal</colorMode>
                <width>10</width>
            </LineStyle>
        </Style>
        <Style id="20">
            <LineStyle id="21">
                <color>ff006400</color>
                <colorMode>normal</colorMode>
                <width>10</width>
            </LineStyle>
        </Style>
        <Style id="24">
            <LineStyle id="25">
                <color>ff006400</color>
                <colorMode>normal</colorMode>
                <width>10</width>
            </LineStyle>
        </Style>
        <Style id="28">
            <LineStyle id="29">
                <color>ff006400</color>
                <colorMode>normal</colorMode>
                <width>10</width>
            </LineStyle>
        </Style>
        <Style id="32">
            <LineStyle id="33">
                <color>ff006400</color>
                <colorMode>normal</colorMode>
                <width>10</width>
            </LineStyle>
        </Style>
        <Style id="36">
            <LineStyle id="37">
                <color>ff006400</color>
                <colorMode>normal</colorMode>
                <width>10</width>
            </LineStyle>
        </Style>
        <Style id="40">
            <LineStyle id="41">
                <color>ff006400</color>
                <colorMode>normal</colorMode>
                <width>10</width>
            </LineStyle>
        </Style>
        <Style id="44">
            <LineStyle id="45">
                <color>ff006400</color>
                <colorMode>normal</colorMode>
                <width>10</width>
            </LineStyle>
        </Style>
        <Style id="48">
            <LineStyle id="49">
                <color>ff006400</color>
                <colorMode>normal</colorMode>
                <width>10</width>
            </LineStyle>
        </Style>
        <Style id="52">
            <LineStyle id="53">
                <color>ff006400</color>
                <colorMode>normal</colorMode>
                <width>10</width>
            </LineStyle>
        </Style>
        <Style id="56">
            <LineStyle id="57">
                <color>ff006400</color>
                <colorMode>normal</colorMode>
                <width>10</width>
            </LineStyle>
        </Style>
        <Style id="60">
            <LineStyle id="61">
                <color>ff006400</color>
                <colorMode>normal</colorMode>
                <width>10</width>
            </LineStyle>
        </Style>
        <Style id="64">
            <LineStyle id="65">
                <color>ff006400</color>
                <colorMode>normal</colorMode>
                <width>10</width>
            </LineStyle>
        </Style>
        <Style id="68">
            <LineStyle id="69">
                <color>ff006400</color>
                <colorMode>normal</colorMode>
                <width>10</width>
            </LineStyle>
        </Style>
        <Style id="72">
            <LineStyle id="73">
                <color>ff006400</color>
                <colorMode>normal</colorMode>
                <width>10</width>
            </LineStyle>
        </Style>
        <Style id="76">
            <LineStyle id="77">
                <color>ff006400</color>
                <colorMode>normal</colorMode>
                <width>10</width>
            </LineStyle>
        </Style>
        <Style id="80">
            <LineStyle id="81">
                <color>ff006400</color>
                <colorMode>normal</colorMode>
                <width>10</width>
            </LineStyle>
        </Style>
        <Placemark id="3">
            <styleUrl>#4</styleUrl>
            <LineString id="2">
                <altitudeMode>relativeToGround</altitudeMode>
                <coordinates>2.9336565454455448,41.720145193564356,5 2.933475979333333,41.72001685,5</coordinates>
            </LineString>
        </Placemark>
        <Placemark id="7">
            <styleUrl>#8</styleUrl>
            <LineString id="6">
                <altitudeMode>relativeToGround</altitudeMode>
                <coordinates>2.933475979333333,41.72001685,5 2.9333969830508475,41.71980480762712,5</coordinates>
            </LineString>
        </Placemark>
        <Placemark id="11">
            <styleUrl>#12</styleUrl>
            <LineString id="10">
                <altitudeMode>relativeToGround</altitudeMode>
                <coordinates>2.9333969830508475,41.71980480762712,5 2.93330799765625,41.71959561171875,5</coordinates>
            </LineString>
        </Placemark>
        <Placemark id="15">
            <styleUrl>#16</styleUrl>
            <LineString id="14">
                <altitudeMode>relativeToGround</altitudeMode>
                <coordinates>2.93330799765625,41.71959561171875,5 2.933212265625,41.719352619375,5</coordinates>
            </LineString>
        </Placemark>
        <Placemark id="19">
            <styleUrl>#20</styleUrl>
            <LineString id="18">
                <altitudeMode>relativeToGround</altitudeMode>
                <coordinates>2.933212265625,41.719352619375,5 2.9330157214285713,41.71917436571429,5</coordinates>
            </LineString>
        </Placemark>
        <Placemark id="23">
            <styleUrl>#24</styleUrl>
            <LineString id="22">
                <altitudeMode>relativeToGround</altitudeMode>
                <coordinates>2.9330157214285713,41.71917436571429,5 2.932774200980392,41.71907348872549,5</coordinates>
            </LineString>
        </Placemark>
        <Placemark id="27">
            <styleUrl>#28</styleUrl>
            <LineString id="26">
                <altitudeMode>relativeToGround</altitudeMode>
                <coordinates>2.932774200980392,41.71907348872549,5 2.9321057871794873,41.71918822564103,5</coordinates>
            </LineString>
        </Placemark>
        <Placemark id="31">
            <styleUrl>#32</styleUrl>
            <LineString id="30">
                <altitudeMode>relativeToGround</altitudeMode>
                <coordinates>2.932774200980392,41.71907348872549,5 2.932711421232877,41.7188266260274,5</coordinates>
            </LineString>
        </Placemark>
        <Placemark id="35">
            <styleUrl>#36</styleUrl>
            <LineString id="34">
                <altitudeMode>relativeToGround</altitudeMode>
                <coordinates>2.9321057871794873,41.71918822564103,5 2.931405625925926,41.7194342,5</coordinates>
            </LineString>
        </Placemark>
        <Placemark id="39">
            <styleUrl>#40</styleUrl>
            <LineString id="38">
                <altitudeMode>relativeToGround</altitudeMode>
                <coordinates>2.931405625925926,41.7194342,5 2.930587425,41.7198473375,5</coordinates>
            </LineString>
        </Placemark>
        <Placemark id="43">
            <styleUrl>#44</styleUrl>
            <LineString id="42">
                <altitudeMode>relativeToGround</altitudeMode>
                <coordinates>2.930587425,41.7198473375,5 2.929650045,41.72040822,5</coordinates>
            </LineString>
        </Placemark>
        <Placemark id="47">
            <styleUrl>#48</styleUrl>
            <LineString id="46">
                <altitudeMode>relativeToGround</altitudeMode>
                <coordinates>2.929650045,41.72040822,5 2.9298718333333333,41.719069186666665,5</coordinates>
            </LineString>
        </Placemark>
        <Placemark id="51">
            <styleUrl>#52</styleUrl>
            <LineString id="50">
                <altitudeMode>relativeToGround</altitudeMode>
                <coordinates>2.9298718333333333,41.719069186666665,5 2.92929524,41.71862286,5</coordinates>
            </LineString>
        </Placemark>
        <Placemark id="55">
            <styleUrl>#56</styleUrl>
            <LineString id="54">
                <altitudeMode>relativeToGround</altitudeMode>
                <coordinates>2.932711421232877,41.7188266260274,5 2.932634027142857,41.718515092380954,5</coordinates>
            </LineString>
        </Placemark>
        <Placemark id="59">
            <styleUrl>#60</styleUrl>
            <LineString id="58">
                <altitudeMode>relativeToGround</altitudeMode>
                <coordinates>2.932634027142857,41.718515092380954,5 2.932614808292683,41.718234941951216,5</coordinates>
            </LineString>
        </Placemark>
        <Placemark id="63">
            <styleUrl>#64</styleUrl>
            <LineString id="62">
                <altitudeMode>relativeToGround</altitudeMode>
                <coordinates>2.932614808292683,41.718234941951216,5 2.932596259139785,41.717959062903226,5</coordinates>
            </LineString>
        </Placemark>
        <Placemark id="67">
            <styleUrl>#68</styleUrl>
            <LineString id="66">
                <altitudeMode>relativeToGround</altitudeMode>
                <coordinates>2.932596259139785,41.717959062903226,5 2.932630757216495,41.71765191391753,5</coordinates>
            </LineString>
        </Placemark>
        <Placemark id="71">
            <styleUrl>#72</styleUrl>
            <LineString id="70">
                <altitudeMode>relativeToGround</altitudeMode>
                <coordinates>2.932630757216495,41.71765191391753,5 2.9328183078817736,41.717388579310345,5</coordinates>
            </LineString>
        </Placemark>
        <Placemark id="75">
            <styleUrl>#76</styleUrl>
            <LineString id="74">
                <altitudeMode>relativeToGround</altitudeMode>
                <coordinates>2.9328183078817736,41.717388579310345,5 2.9333415222222223,41.717279983333334,5</coordinates>
            </LineString>
        </Placemark>
        <Placemark id="79">
            <styleUrl>#80</styleUrl>
            <LineString id="78">
                <altitudeMode>relativeToGround</altitudeMode>
                <coordinates>2.9333415222222223,41.717279983333334,5 2.934001951851852,41.71693554814815,5</coordinates>
            </LineString>
        </Placemark>
    </Document>
</kml>
